{
  "type": "FeatureCollection",
  "features": [
    {
      "type": "Feature",
      "properties": {
        "norad_id": 30232,
        "name": "FENGYUN 1C DEB",
        "group": "fengyun-1c-debris",
        "lat": -30.807884311714933,
        "lon": -3.7473919133152105,
        "alt_km": 774.5023984067848,
        "timestamp": "2025-12-07T14:37:05.479487+00:00",
        "meta_object_name": "FENGYUN 1C DEB",
        "meta_object_id": "1999-025WR",
        "meta_epoch": "2025-12-06T00:36:38.390112",
        "meta_mean_motion": 14.63513041,
        "meta_eccentricity": 0.01364566,
        "meta_inclination": 98.6931,
        "meta_ra_of_asc_node": 179.8178,
        "meta_arg_of_pericenter": 10.5146,
        "meta_mean_anomaly": 142.4291,
        "meta_ephemeris_type": 0,
        "meta_classification_type": "U",
        "meta_norad_cat_id": 30232,
        "meta_element_set_no": 999,
        "meta_rev_at_epoch": 99653,
        "meta_bstar": 0.0010520016,
        "meta_mean_motion_dot": 6.187e-05,
        "meta_mean_motion_ddot": 0,
        "tle_line1": "1 30232U 99025WR  25340.02544433  .00006187  00000+0  10520-2 0  9995",
        "tle_line2": "2 30232  98.6931 179.8178 0136456  10.5146 142.4291 14.63513041996534"
      },
      "geometry": {
        "type": "Point",
        "coordinates": [
          -3.7473919133152105,
          -30.807884311714933
        ]
      }
    },
    {
      "type": "Feature",
      "properties": {
        "norad_id": 30234,
        "name": "FENGYUN 1C DEB",
        "group": "fengyun-1c-debris",
        "lat": -73.23636369458919,
        "lon": 142.24636041879052,
        "alt_km": 890.2198816438349,
        "timestamp": "2025-12-07T14:37:05.479498+00:00",
        "meta_object_name": "FENGYUN 1C DEB",
        "meta_object_id": "1999-025WT",
        "meta_epoch": "2025-12-06T22:28:11.419392",
        "meta_mean_motion": 14.16852691,
        "meta_eccentricity": 0.00670856,
        "meta_inclination": 98.6339,
        "meta_ra_of_asc_node": 351.8847,
        "meta_arg_of_pericenter": 91.5996,
        "meta_mean_anomaly": 333.7146,
        "meta_ephemeris_type": 0,
        "meta_classification_type": "U",
        "meta_norad_cat_id": 30234,
        "meta_element_set_no": 999,
        "meta_rev_at_epoch": 97374,
        "meta_bstar": 0.00053348235,
        "meta_mean_motion_dot": 1.051e-05,
        "meta_mean_motion_ddot": 0,
        "tle_line1": "1 30234U 99025WT  25340.93624328  .00001051  00000+0  53348-3 0  9990",
        "tle_line2": "2 30234  98.6339 351.8847 0067085  91.5996 333.7146 14.16852691973743"
      },
      "geometry": {
        "type": "Point",
        "coordinates": [
          142.24636041879052,
          -73.23636369458919
        ]
      }
    },
    {
      "type": "Feature",
      "properties": {
        "norad_id": 30235,
        "name": "FENGYUN 1C DEB",
        "group": "fengyun-1c-debris",
        "lat": 6.855551571635618,
        "lon": -1.1352651743070095,
        "alt_km": 909.096481710837,
        "timestamp": "2025-12-07T14:37:05.479508+00:00",
        "meta_object_name": "FENGYUN 1C DEB",
        "meta_object_id": "1999-025WU",
        "meta_epoch": "2025-12-06T15:20:30.750720",
        "meta_mean_motion": 14.08766028,
        "meta_eccentricity": 0.01532531,
        "meta_inclination": 98.7499,
        "meta_ra_of_asc_node": 358.9841,
        "meta_arg_of_pericenter": 255.8866,
        "meta_mean_anomaly": 233.6555,
        "meta_ephemeris_type": 0,
        "meta_classification_type": "U",
        "meta_norad_cat_id": 30235,
        "meta_element_set_no": 999,
        "meta_rev_at_epoch": 96807,
        "meta_bstar": 0.00068713609,
        "meta_mean_motion_dot": 1.276e-05,
        "meta_mean_motion_ddot": 0,
        "tle_line1": "1 30235U 99025WU  25340.63924480  .00001276  00000+0  68714-3 0  9992",
        "tle_line2": "2 30235  98.7499 358.9841 0153253 255.8866 233.6555 14.08766028968079"
      },
      "geometry": {
        "type": "Point",
        "coordinates": [
          -1.1352651743070095,
          6.855551571635618
        ]
      }
    },
    {
      "type": "Feature",
      "properties": {
        "norad_id": 30237,
        "name": "FENGYUN 1C DEB",
        "group": "fengyun-1c-debris",
        "lat": 65.91762058140554,
        "lon": 63.851743616106475,
        "alt_km": 752.1974854658911,
        "timestamp": "2025-12-07T14:37:05.479518+00:00",
        "meta_object_name": "FENGYUN 1C DEB",
        "meta_object_id": "1999-025WW",
        "meta_epoch": "2025-12-06T20:34:08.690592",
        "meta_mean_motion": 14.40757238,
        "meta_eccentricity": 0.00135268,
        "meta_inclination": 98.8267,
        "meta_ra_of_asc_node": 83.4201,
        "meta_arg_of_pericenter": 323.3027,
        "meta_mean_anomaly": 165.6438,
        "meta_ephemeris_type": 0,
        "meta_classification_type": "U",
        "meta_norad_cat_id": 30237,
        "meta_element_set_no": 999,
        "meta_rev_at_epoch": 97613,
        "meta_bstar": 0.0041421869,
        "meta_mean_motion_dot": 0.0001324,
        "meta_mean_motion_ddot": 0,
        "tle_line1": "1 30237U 99025WW  25340.85704503  .00013240  00000+0  41422-2 0  9990",
        "tle_line2": "2 30237  98.8267  83.4201 0013526 323.3027 165.6438 14.40757238976132"
      },
      "geometry": {
        "type": "Point",
        "coordinates": [
          63.851743616106475,
          65.91762058140554
        ]
      }
    },
    {
      "type": "Feature",
      "properties": {
        "norad_id": 30239,
        "name": "FENGYUN 1C DEB",
        "group": "fengyun-1c-debris",
        "lat": 61.81580235901836,
        "lon": -29.820634716506934,
        "alt_km": 1569.847353144074,
        "timestamp": "2025-12-07T14:37:05.479529+00:00",
        "meta_object_name": "FENGYUN 1C DEB",
        "meta_object_id": "1999-025WY",
        "meta_epoch": "2025-12-06T16:58:44.100768",
        "meta_mean_motion": 11.38043095,
        "meta_eccentricity": 0.1345849,
        "meta_inclination": 99.5908,
        "meta_ra_of_asc_node": 131.1843,
        "meta_arg_of_pericenter": 41.2909,
        "meta_mean_anomaly": 328.2386,
        "meta_ephemeris_type": 0,
        "meta_classification_type": "U",
        "meta_norad_cat_id": 30239,
        "meta_element_set_no": 999,
        "meta_rev_at_epoch": 54466,
        "meta_bstar": 0.016687802,
        "meta_mean_motion_dot": 5.519e-05,
        "meta_mean_motion_ddot": 0,
        "tle_line1": "1 30239U 99025WY  25340.70745487  .00005519  00000+0  16688-1 0  9997",
        "tle_line2": "2 30239  99.5908 131.1843 1345849  41.2909 328.2386 11.38043095544660"
      },
      "geometry": {
        "type": "Point",
        "coordinates": [
          -29.820634716506934,
          61.81580235901836
        ]
      }
    },
    {
      "type": "Feature",
      "properties": {
        "norad_id": 30241,
        "name": "FENGYUN 1C DEB",
        "group": "fengyun-1c-debris",
        "lat": -34.85359574857135,
        "lon": -72.03708363509627,
        "alt_km": 918.9595868868491,
        "timestamp": "2025-12-07T14:37:05.479540+00:00",
        "meta_object_name": "FENGYUN 1C DEB",
        "meta_object_id": "1999-025XA",
        "meta_epoch": "2025-12-06T22:49:45.333696",
        "meta_mean_motion": 14.09536962,
        "meta_eccentricity": 0.01468346,
        "meta_inclination": 99.1483,
        "meta_ra_of_asc_node": 113.7378,
        "meta_arg_of_pericenter": 97.1947,
        "meta_mean_anomaly": 20.1836,
        "meta_ephemeris_type": 0,
        "meta_classification_type": "U",
        "meta_norad_cat_id": 30241,
        "meta_element_set_no": 999,
        "meta_rev_at_epoch": 96830,
        "meta_bstar": 0.00044357352,
        "meta_mean_motion_dot": 8.13e-06,
        "meta_mean_motion_ddot": 0,
        "tle_line1": "1 30241U 99025XA  25340.95121914  .00000813  00000+0  44357-3 0  9998",
        "tle_line2": "2 30241  99.1483 113.7378 0146834  97.1947  20.1836 14.09536962968300"
      },
      "geometry": {
        "type": "Point",
        "coordinates": [
          -72.03708363509627,
          -34.85359574857135
        ]
      }
    },
    {
      "type": "Feature",
      "properties": {
        "norad_id": 30242,
        "name": "FENGYUN 1C DEB",
        "group": "fengyun-1c-debris",
        "lat": -0.4222604780205047,
        "lon": 15.960221697041327,
        "alt_km": 833.4439758006647,
        "timestamp": "2025-12-07T14:37:05.479550+00:00",
        "meta_object_name": "FENGYUN 1C DEB",
        "meta_object_id": "1999-025XB",
        "meta_epoch": "2025-12-06T15:29:07.401984",
        "meta_mean_motion": 14.17616987,
        "meta_eccentricity": 0.00113187,
        "meta_inclination": 98.6838,
        "meta_ra_of_asc_node": 14.9537,
        "meta_arg_of_pericenter": 71.4636,
        "meta_mean_anomaly": 52.0913,
        "meta_ephemeris_type": 0,
        "meta_classification_type": "U",
        "meta_norad_cat_id": 30242,
        "meta_element_set_no": 999,
        "meta_rev_at_epoch": 97340,
        "meta_bstar": 0.0010071033,
        "meta_mean_motion_dot": 2.006e-05,
        "meta_mean_motion_ddot": 0,
        "tle_line1": "1 30242U 99025XB  25340.64522456  .00002006  00000+0  10071-2 0  9992",
        "tle_line2": "2 30242  98.6838  14.9537 0011318  71.4636  52.0913 14.17616987973408"
      },
      "geometry": {
        "type": "Point",
        "coordinates": [
          15.960221697041327,
          -0.4222604780205047
        ]
      }
    }
  ]
}